{
  "norad_id": 45044,
  "name": "STARLINK-1132",
  "history": [
    {
      "epoch": "2026-03-28T14:50:18.014784Z",
      "apogee_km": 432.5210021769526,
      "perigee_km": 426.8160611414223,
      "latitude_deg": 2.175605527302957e-05,
      "longitude_deg": 115.49922992977932,
      "height_km": 428.80502138767844,
      "semi_major_axis_km": 6807.805531659187,
      "eccentricity": 0.000419,
      "inclination_deg": 53.1557,
      "raan_deg": 164.1104,
      "arg_perigee_deg": 308.4042,
      "mean_anomaly_deg": 51.6589,
      "mean_motion_rev_day": 15.45581995
    },
    {
      "epoch": "2026-03-29T04:48:19.605888Z",
      "apogee_km": 432.256479990956,
      "perigee_km": 426.6306953932881,
      "latitude_deg": -4.29365090743186e-05,
      "longitude_deg": -97.34795669136227,
      "height_km": 428.4218278091071,
      "semi_major_axis_km": 6807.580587692122,
      "eccentricity": 0.0004132,
      "inclination_deg": 53.1557,
      "raan_deg": 161.3435,
      "arg_perigee_deg": 313.3255,
      "mean_anomaly_deg": 46.7407,
      "mean_motion_rev_day": 15.45658602
    },
    {
      "epoch": "2026-03-30T04:04:56.506944Z",
      "apogee_km": 432.17356039768583,
      "perigee_km": 425.93545010227444,
      "latitude_deg": -2.67790128246911e-05,
      "longitude_deg": -92.06974745998359,
      "height_km": 427.83390412056536,
      "semi_major_axis_km": 6807.19150524998,
      "eccentricity": 0.0004582,
      "inclination_deg": 53.1561,
      "raan_deg": 156.7314,
      "arg_perigee_deg": 313.0516,
      "mean_anomaly_deg": 47.0107,
      "mean_motion_rev_day": 15.45791123
    },
    {
      "epoch": "2026-03-30T13:23:32.572896Z",
      "apogee_km": 431.7039829744672,
      "perigee_km": 425.87684469258056,
      "latitude_deg": 3.654465779280805e-05,
      "longitude_deg": 126.05207650641353,
      "height_km": 427.44287572240376,
      "semi_major_axis_km": 6806.927413833524,
      "eccentricity": 0.00042803,
      "inclination_deg": 53.1556,
      "raan_deg": 154.8858,
      "arg_perigee_deg": 320.7317,
      "mean_anomaly_deg": 39.338,
      "mean_motion_rev_day": 15.45881083
    },
    {
      "epoch": "2026-03-30T21:09:01.288224Z",
      "apogee_km": 431.52648582623624,
      "perigee_km": 425.658948675371,
      "latitude_deg": -1.841756854857248e-05,
      "longitude_deg": 7.826579952881695,
      "height_km": 427.1692179734662,
      "semi_major_axis_km": 6806.729717250803,
      "eccentricity": 0.00043101,
      "inclination_deg": 53.1554,
      "raan_deg": 153.3486,
      "arg_perigee_deg": 322.6297,
      "mean_anomaly_deg": 37.441,
      "mean_motion_rev_day": 15.45948432
    },
    {
      "epoch": "2026-03-31T20:25:20.941248Z",
      "apogee_km": 431.0549914587764,
      "perigee_km": 425.10907850981494,
      "latitude_deg": -5.792922769516939e-06,
      "longitude_deg": 13.174950844648787,
      "height_km": 426.51354975692897,
      "semi_major_axis_km": 6806.219034984296,
      "eccentricity": 0.0004368,
      "inclination_deg": 53.1546,
      "raan_deg": 148.7346,
      "arg_perigee_deg": 326.4039,
      "mean_anomaly_deg": 33.6691,
      "mean_motion_rev_day": 15.46122428
    },
    {
      "epoch": "2026-04-01T10:23:03.563232Z",
      "apogee_km": 430.75062386084755,
      "perigee_km": 424.68932763824523,
      "latitude_deg": 1.2422489073835625e-05,
      "longitude_deg": 160.4047811896128,
      "height_km": 426.03146242112945,
      "semi_major_axis_km": 6805.856975749546,
      "eccentricity": 0.0004453,
      "inclination_deg": 53.1547,
      "raan_deg": 145.9654,
      "arg_perigee_deg": 328.9472,
      "mean_anomaly_deg": 31.1272,
      "mean_motion_rev_day": 15.46245806
    },
    {
      "epoch": "2026-04-02T12:45:17.114112Z",
      "apogee_km": 430.33743541866806,
      "perigee_km": 424.0906675814758,
      "latitude_deg": 3.95242164481084e-05,
      "longitude_deg": 118.53504534472854,
      "height_km": 425.2619806892987,
      "semi_major_axis_km": 6805.351051500072,
      "eccentricity": 0.00045896,
      "inclination_deg": 53.1548,
      "raan_deg": 140.7351,
      "arg_perigee_deg": 336.2814,
      "mean_anomaly_deg": 23.7982,
      "mean_motion_rev_day": 15.46418236
    },
    {
      "epoch": "2026-04-03T12:01:12.196704Z",
      "apogee_km": 429.79585895171385,
      "perigee_km": 423.74670378407427,
      "latitude_deg": 7.823554726953886e-05,
      "longitude_deg": 123.98279173125968,
      "height_km": 424.8339074471303,
      "semi_major_axis_km": 6804.908281367894,
      "eccentricity": 0.00044447,
      "inclination_deg": 53.1546,
      "raan_deg": 136.1178,
      "arg_perigee_deg": 340.1331,
      "mean_anomaly_deg": 19.9504,
      "mean_motion_rev_day": 15.46569168
    },
    {
      "epoch": "2026-04-04T12:49:57.317952Z",
      "apogee_km": 429.0669787493416,
      "perigee_km": 422.74058163191967,
      "latitude_deg": 1.6480177377134443e-05,
      "longitude_deg": 105.85252541906212,
      "height_km": 423.7560961765089,
      "semi_major_axis_km": 6804.04078019063,
      "eccentricity": 0.0004649,
      "inclination_deg": 53.1539,
      "raan_deg": 131.1946,
      "arg_perigee_deg": 344.9446,
      "mean_anomaly_deg": 15.1423,
      "mean_motion_rev_day": 15.46864954
    },
    {
      "epoch": "2026-04-05T12:05:27.192480Z",
      "apogee_km": 428.4984147149016,
      "perigee_km": 422.1819304383371,
      "latitude_deg": -6.80026349010628e-05,
      "longitude_deg": 111.40489954268064,
      "height_km": 423.1419941444441,
      "semi_major_axis_km": 6803.477172576619,
      "eccentricity": 0.00046421,
      "inclination_deg": 53.1542,
      "raan_deg": 126.5767,
      "arg_perigee_deg": 349.4503,
      "mean_anomaly_deg": 10.6406,
      "mean_motion_rev_day": 15.47057174
    },
    {
      "epoch": "2026-04-06T05:08:42.139968Z",
      "apogee_km": 428.13002103237795,
      "perigee_km": 421.7075281977941,
      "latitude_deg": 5.354710940194919e-05,
      "longitude_deg": -148.49428164202226,
      "height_km": 422.64339084610094,
      "semi_major_axis_km": 6803.055774615085,
      "eccentricity": 0.00047203,
      "inclination_deg": 53.1546,
      "raan_deg": 123.1901,
      "arg_perigee_deg": 352.25,
      "mean_anomaly_deg": 7.8435,
      "mean_motion_rev_day": 15.47200919
    },
    {
      "epoch": "2026-04-07T05:56:54.476736Z",
      "apogee_km": 427.56509002087387,
      "perigee_km": 421.13918668122096,
      "latitude_deg": 6.3177810676960476e-06,
      "longitude_deg": -166.49206325757456,
      "height_km": 422.05112141051904,
      "semi_major_axis_km": 6802.489138351047,
      "eccentricity": 0.00047232,
      "inclination_deg": 53.1542,
      "raan_deg": 118.2624,
      "arg_perigee_deg": 356.5666,
      "mean_anomaly_deg": 3.5309,
      "mean_motion_rev_day": 15.47394242
    },
    {
      "epoch": "2026-04-07T18:20:56.974848Z",
      "apogee_km": 427.39446403892634,
      "perigee_km": 420.9023628403402,
      "latitude_deg": 1.8044934621595135e-05,
      "longitude_deg": 4.524856763138997,
      "height_km": 421.809092986264,
      "semi_major_axis_km": 6802.285413439633,
      "eccentricity": 0.0004772,
      "inclination_deg": 53.1544,
      "raan_deg": 115.799,
      "arg_perigee_deg": 358.7871,
      "mean_anomaly_deg": 1.3125,
      "mean_motion_rev_day": 15.47463758
    },
    {
      "epoch": "2026-04-08T11:23:56.539680Z",
      "apogee_km": 427.01037296574395,
      "perigee_km": 420.65746816535375,
      "latitude_deg": 3.081445891533013e-05,
      "longitude_deg": 104.68826366740252,
      "height_km": 421.5641762036756,
      "semi_major_axis_km": 6801.970920565548,
      "eccentricity": 0.00046699,
      "inclination_deg": 53.154,
      "raan_deg": 112.4108,
      "arg_perigee_deg": 1.4152,
      "mean_anomaly_deg": 358.6869,
      "mean_motion_rev_day": 15.47571081
    },
    {
      "epoch": "2026-04-09T07:32:50.426592Z",
      "apogee_km": 426.61444125664457,
      "perigee_km": 420.2779503197844,
      "latitude_deg": -2.956002101664745e-05,
      "longitude_deg": 157.63292598469616,
      "height_km": 421.19279273224515,
      "semi_major_axis_km": 6801.583195788215,
      "eccentricity": 0.00046581,
      "inclination_deg": 53.1542,
      "raan_deg": 108.4075,
      "arg_perigee_deg": 4.3957,
      "mean_anomaly_deg": 355.7091,
      "mean_motion_rev_day": 15.47703412
    },
    {
      "epoch": "2026-04-10T06:47:36.493728Z",
      "apogee_km": 426.2516721168995,
      "perigee_km": 419.8503939402117,
      "latitude_deg": 2.5966856371563152e-05,
      "longitude_deg": 163.36533366591777,
      "height_km": 420.7920464212302,
      "semi_major_axis_km": 6801.188033028555,
      "eccentricity": 0.0004706,
      "inclination_deg": 53.1548,
      "raan_deg": 103.7865,
      "arg_perigee_deg": 8.6571,
      "mean_anomaly_deg": 351.4518,
      "mean_motion_rev_day": 15.47838301
    },
    {
      "epoch": "2026-04-11T16:53:02.950368Z",
      "apogee_km": 425.76198637706693,
      "perigee_km": 419.2578476656272,
      "latitude_deg": 3.324210477969455e-05,
      "longitude_deg": 3.8262457037649504,
      "height_km": 420.284938412941,
      "semi_major_axis_km": 6800.646917021347,
      "eccentricity": 0.0004782,
      "inclination_deg": 53.1556,
      "raan_deg": 97.0077,
      "arg_perigee_deg": 15.7784,
      "mean_anomaly_deg": 344.3373,
      "mean_motion_rev_day": 15.48023043
    },
    {
      "epoch": "2026-04-12T16:07:31.856736Z",
      "apogee_km": 425.4104411598537,
      "perigee_km": 418.9324673263418,
      "latitude_deg": 4.460240135421437e-06,
      "longitude_deg": 9.629991396411056,
      "height_km": 420.01836435371183,
      "semi_major_axis_km": 6800.308454243097,
      "eccentricity": 0.0004763,
      "inclination_deg": 53.1536,
      "raan_deg": 92.3864,
      "arg_perigee_deg": 19.2927,
      "mean_anomaly_deg": 340.8261,
      "mean_motion_rev_day": 15.48138616
    }
  ]
}